{"fetched_at":"2026-07-15T06:36:10.372Z","source":"https://celestrak.org/NORAD/elements/gp.php?NAME=JILIN&FORMAT=JSON","constellation":"jilin-1-gaofen","records":[{"OBJECT_NAME":"JILIN-1 GAOFEN 03D51","OBJECT_ID":"2022-155B","EPOCH":"2026-07-14T22:30:41.652576","CLASSIFICATION_TYPE":"U","MEAN_MOTION":15.6484591,"ECCENTRICITY":0.00043608,"INCLINATION":97.6255,"RA_OF_ASC_NODE":342.9392,"ARG_OF_PERICENTER":232.741,"MEAN_ANOMALY":127.3451,"EPHEMERIS_TYPE":0,"NORAD_CAT_ID":54252,"ELEMENT_SET_NO":999,"REV_AT_EPOCH":20408,"BSTAR":0.00037457688,"MEAN_MOTION_DOT":0.00036495,"MEAN_MOTION_DDOT":0},{"OBJECT_NAME":"JILIN-1 GAOFEN 03D53","OBJECT_ID":"2022-155C","EPOCH":"2026-07-14T21:57:08.804736","CLASSIFICATION_TYPE":"U","MEAN_MOTION":15.54408996,"ECCENTRICITY":0.00048535,"INCLINATION":97.6249,"RA_OF_ASC_NODE":338.1207,"ARG_OF_PERICENTER":252.0544,"MEAN_ANOMALY":108.018,"EPHEMERIS_TYPE":0,"NORAD_CAT_ID":54253,"ELEMENT_SET_NO":999,"REV_AT_EPOCH":20379,"BSTAR":0.00031692611,"MEAN_MOTION_DOT":0.00020722,"MEAN_MOTION_DDOT":0},{"OBJECT_NAME":"JILIN-1 GAOFEN 03D52","OBJECT_ID":"2022-155E","EPOCH":"2026-07-14T22:13:10.032384","CLASSIFICATION_TYPE":"U","MEAN_MOTION":15.62019654,"ECCENTRICITY":0.00037129,"INCLINATION":97.6229,"RA_OF_ASC_NODE":341.1384,"ARG_OF_PERICENTER":248.0959,"MEAN_ANOMALY":111.9903,"EPHEMERIS_TYPE":0,"NORAD_CAT_ID":54255,"ELEMENT_SET_NO":999,"REV_AT_EPOCH":20403,"BSTAR":0.0003429032,"MEAN_MOTION_DOT":0.00029875,"MEAN_MOTION_DDOT":0},{"OBJECT_NAME":"JILIN-1 GAOFEN 03D50","OBJECT_ID":"2022-167J","EPOCH":"2026-07-14T23:13:33.818592","CLASSIFICATION_TYPE":"U","MEAN_MOTION":15.35058619,"ECCENTRICITY":0.00052368,"INCLINATION":97.6849,"RA_OF_ASC_NODE":4.9601,"ARG_OF_PERICENTER":22.3638,"MEAN_ANOMALY":337.7832,"EPHEMERIS_TYPE":0,"NORAD_CAT_ID":54690,"ELEMENT_SET_NO":999,"REV_AT_EPOCH":19961,"BSTAR":0.00018451328,"MEAN_MOTION_DOT":0.00006192,"MEAN_MOTION_DDOT":0},{"OBJECT_NAME":"JILIN-1 GAOFEN 03D47","OBJECT_ID":"2022-167L","EPOCH":"2026-07-14T23:19:01.181280","CLASSIFICATION_TYPE":"U","MEAN_MOTION":15.34340883,"ECCENTRICITY":0.00078187,"INCLINATION":97.6945,"RA_OF_ASC_NODE":6.702,"ARG_OF_PERICENTER":30.2575,"MEAN_ANOMALY":329.9118,"EPHEMERIS_TYPE":0,"NORAD_CAT_ID":54692,"ELEMENT_SET_NO":999,"REV_AT_EPOCH":19960,"BSTAR":0.00018078383,"MEAN_MOTION_DOT":0.0000593,"MEAN_MOTION_DDOT":0},{"OBJECT_NAME":"JILIN-1 GAOFEN 03D49","OBJECT_ID":"2022-167N","EPOCH":"2026-07-14T23:42:18.292608","CLASSIFICATION_TYPE":"U","MEAN_MOTION":15.38038808,"ECCENTRICITY":0.00060576,"INCLINATION":97.6821,"RA_OF_ASC_NODE":7.3748,"ARG_OF_PERICENTER":50.008,"MEAN_ANOMALY":310.1695,"EPHEMERIS_TYPE":0,"NORAD_CAT_ID":54694,"ELEMENT_SET_NO":999,"REV_AT_EPOCH":19976,"BSTAR":0.00019378523,"MEAN_MOTION_DOT":0.00007168,"MEAN_MOTION_DDOT":0},{"OBJECT_NAME":"JILIN-1 GAOFEN 03D48","OBJECT_ID":"2022-167P","EPOCH":"2026-07-14T23:02:58.721568","CLASSIFICATION_TYPE":"U","MEAN_MOTION":15.35789949,"ECCENTRICITY":0.0006482,"INCLINATION":97.6894,"RA_OF_ASC_NODE":6.6729,"ARG_OF_PERICENTER":31.0626,"MEAN_ANOMALY":329.0999,"EPHEMERIS_TYPE":0,"NORAD_CAT_ID":54695,"ELEMENT_SET_NO":999,"REV_AT_EPOCH":19965,"BSTAR":0.00019138405,"MEAN_MOTION_DOT":0.0000658,"MEAN_MOTION_DDOT":0},{"OBJECT_NAME":"JILIN GAOFEN OBJECT A","OBJECT_ID":"2026-080A","EPOCH":"2026-07-13T00:17:31.958880","CLASSIFICATION_TYPE":"U","MEAN_MOTION":15.09189243,"ECCENTRICITY":0.00113812,"INCLINATION":97.6615,"RA_OF_ASC_NODE":269.4933,"ARG_OF_PERICENTER":343.1565,"MEAN_ANOMALY":16.9284,"EPHEMERIS_TYPE":0,"NORAD_CAT_ID":68691,"ELEMENT_SET_NO":999,"REV_AT_EPOCH":1355,"BSTAR":0.0002123377,"MEAN_MOTION_DOT":0.00003313,"MEAN_MOTION_DDOT":0},{"OBJECT_NAME":"JILIN GAOFEN OBJECT B","OBJECT_ID":"2026-080B","EPOCH":"2026-07-14T22:00:21.035232","CLASSIFICATION_TYPE":"U","MEAN_MOTION":15.09102931,"ECCENTRICITY":0.00148709,"INCLINATION":97.6591,"RA_OF_ASC_NODE":271.4102,"ARG_OF_PERICENTER":314.1581,"MEAN_ANOMALY":45.8424,"EPHEMERIS_TYPE":0,"NORAD_CAT_ID":68692,"ELEMENT_SET_NO":999,"REV_AT_EPOCH":1384,"BSTAR":0.0001421262,"MEAN_MOTION_DOT":0.00002193,"MEAN_MOTION_DDOT":0},{"OBJECT_NAME":"JILIN GAOFEN OBJECT C","OBJECT_ID":"2026-080C","EPOCH":"2026-07-13T00:15:39.218976","CLASSIFICATION_TYPE":"U","MEAN_MOTION":15.09172584,"ECCENTRICITY":0.00122108,"INCLINATION":97.6598,"RA_OF_ASC_NODE":269.4765,"ARG_OF_PERICENTER":323.0944,"MEAN_ANOMALY":36.9443,"EPHEMERIS_TYPE":0,"NORAD_CAT_ID":68693,"ELEMENT_SET_NO":999,"REV_AT_EPOCH":1355,"BSTAR":0.00021711177,"MEAN_MOTION_DOT":0.00003389,"MEAN_MOTION_DDOT":0},{"OBJECT_NAME":"JILIN GAOFEN OBJECT D","OBJECT_ID":"2026-080D","EPOCH":"2026-07-14T23:37:01.576992","CLASSIFICATION_TYPE":"U","MEAN_MOTION":15.08958664,"ECCENTRICITY":0.00164731,"INCLINATION":97.6654,"RA_OF_ASC_NODE":271.5507,"ARG_OF_PERICENTER":326.2886,"MEAN_ANOMALY":33.7294,"EPHEMERIS_TYPE":0,"NORAD_CAT_ID":68694,"ELEMENT_SET_NO":999,"REV_AT_EPOCH":1383,"BSTAR":0.0001361808,"MEAN_MOTION_DOT":0.00002091,"MEAN_MOTION_DDOT":0},{"OBJECT_NAME":"JILIN GAOFEN OBJECT E","OBJECT_ID":"2026-080E","EPOCH":"2026-07-14T23:10:40.298880","CLASSIFICATION_TYPE":"U","MEAN_MOTION":15.09252236,"ECCENTRICITY":0.00124925,"INCLINATION":97.6635,"RA_OF_ASC_NODE":271.5529,"ARG_OF_PERICENTER":337.813,"MEAN_ANOMALY":22.2557,"EPHEMERIS_TYPE":0,"NORAD_CAT_ID":68695,"ELEMENT_SET_NO":999,"REV_AT_EPOCH":1381,"BSTAR":0.0001977196,"MEAN_MOTION_DOT":0.00003087,"MEAN_MOTION_DDOT":0},{"OBJECT_NAME":"JILIN GAOFEN OBJECT F","OBJECT_ID":"2026-080F","EPOCH":"2026-07-14T23:09:15.012576","CLASSIFICATION_TYPE":"U","MEAN_MOTION":15.09217115,"ECCENTRICITY":0.00135795,"INCLINATION":97.6606,"RA_OF_ASC_NODE":271.5204,"ARG_OF_PERICENTER":343.7808,"MEAN_ANOMALY":16.2984,"EPHEMERIS_TYPE":0,"NORAD_CAT_ID":68696,"ELEMENT_SET_NO":999,"REV_AT_EPOCH":1381,"BSTAR":0.00019994264,"MEAN_MOTION_DOT":0.0000312,"MEAN_MOTION_DDOT":0},{"OBJECT_NAME":"JILIN GAOFEN OBJECT G","OBJECT_ID":"2026-080G","EPOCH":"2026-07-14T22:49:15.125664","CLASSIFICATION_TYPE":"U","MEAN_MOTION":15.09203405,"ECCENTRICITY":0.00134166,"INCLINATION":97.6655,"RA_OF_ASC_NODE":271.5906,"ARG_OF_PERICENTER":337.0378,"MEAN_ANOMALY":23.025,"EPHEMERIS_TYPE":0,"NORAD_CAT_ID":68697,"ELEMENT_SET_NO":999,"REV_AT_EPOCH":1381,"BSTAR":0.00019681911,"MEAN_MOTION_DOT":0.00003069,"MEAN_MOTION_DDOT":0},{"OBJECT_NAME":"JILIN GAOFEN OBJECT H","OBJECT_ID":"2026-080H","EPOCH":"2026-07-13T19:43:09.162912","CLASSIFICATION_TYPE":"U","MEAN_MOTION":15.09126923,"ECCENTRICITY":0.00142635,"INCLINATION":97.6642,"RA_OF_ASC_NODE":270.4535,"ARG_OF_PERICENTER":342.447,"MEAN_ANOMALY":17.6264,"EPHEMERIS_TYPE":0,"NORAD_CAT_ID":68698,"ELEMENT_SET_NO":999,"REV_AT_EPOCH":1364,"BSTAR":0.00020933195,"MEAN_MOTION_DOT":0.00003263,"MEAN_MOTION_DDOT":0}]}
