JILIN-1 GAOFEN 03D51    
1 54252U 22155B   26195.93798209  .00036495  00000+0  37458-3 0  9999
2 54252  97.6255 342.9392 0004360 232.7410 127.3451 15.64845910204088
JILIN-1 GAOFEN 03D53    
1 54253U 22155C   26195.91468524  .00020722  00000+0  31693-3 0  9993
2 54253  97.6249 338.1207 0004853 252.0544 108.0180 15.54408996203794
JILIN-1 GAOFEN 03D52    
1 54255U 22155E   26195.92581056  .00029875  00000+0  34290-3 0  9996
2 54255  97.6229 341.1384 0003712 248.0959 111.9903 15.62019654204034
JILIN-1 GAOFEN 03D50    
1 54690U 22167J   26195.96775253  .00006192  00000+0  18451-3 0  9998
2 54690  97.6849   4.9601 0005236  22.3638 337.7832 15.35058619199611
JILIN-1 GAOFEN 03D47    
1 54692U 22167L   26195.97154145  .00005930  00000+0  18078-3 0  9996
2 54692  97.6945   6.7020 0007818  30.2575 329.9118 15.34340883199606
JILIN-1 GAOFEN 03D49    
1 54694U 22167N   26195.98771172  .00007168  00000+0  19379-3 0  9994
2 54694  97.6821   7.3748 0006057  50.0080 310.1695 15.38038808199764
JILIN-1 GAOFEN 03D48    
1 54695U 22167P   26195.96040187  .00006580  00000+0  19138-3 0  9998
2 54695  97.6894   6.6729 0006482  31.0626 329.0999 15.35789949199653
JILIN GAOFEN OBJECT A   
1 68691U 26080A   26194.01217545  .00003313  00000+0  21234-3 0  9997
2 68691  97.6615 269.4933 0011381 343.1565  16.9284 15.09189243 13559
JILIN GAOFEN OBJECT B   
1 68692U 26080B   26195.91691013  .00002193  00000+0  14213-3 0  9998
2 68692  97.6591 271.4102 0014870 314.1581  45.8424 15.09102931 13844
JILIN GAOFEN OBJECT C   
1 68693U 26080C   26194.01087059  .00003389  00000+0  21711-3 0  9997
2 68693  97.6598 269.4765 0012210 323.0944  36.9443 15.09172584 13553
JILIN GAOFEN OBJECT D   
1 68694U 26080D   26195.98404603  .00002091  00000+0  13618-3 0  9999
2 68694  97.6654 271.5507 0016473 326.2886  33.7294 15.08958664 13830
JILIN GAOFEN OBJECT E   
1 68695U 26080E   26195.96574420  .00003087  00000+0  19772-3 0  9996
2 68695  97.6635 271.5529 0012492 337.8130  22.2557 15.09252236 13817
JILIN GAOFEN OBJECT F   
1 68696U 26080F   26195.96475709  .00003120  00000+0  19994-3 0  9991
2 68696  97.6606 271.5204 0013579 343.7808  16.2984 15.09217115 13815
JILIN GAOFEN OBJECT G   
1 68697U 26080G   26195.95086951  .00003069  00000+0  19682-3 0  9994
2 68697  97.6655 271.5906 0013416 337.0378  23.0250 15.09203405 13816
JILIN GAOFEN OBJECT H   
1 68698U 26080H   26194.82163383  .00003263  00000+0  20933-3 0  9992
2 68698  97.6642 270.4535 0014263 342.4470  17.6264 15.09126923 13647
